{"type": "FeatureCollection", "features": [ {"type": "Feature", "properties": {"norad_id": 66976, "name": "STARLINK-35772", "group": "last-30-days", "lat": -40.61573712206821, "lon": 22.635443196857523, "alt_km": 329.46822011707354, "timestamp": "2025-12-17T21:39:44.493558+00:00", "meta": {"OBJECT_NAME": "STARLINK-35772", "OBJECT_ID": "2025-288T", "EPOCH": "2025-12-16T14:00:03.000384", "MEAN_MOTION": 15.86872966, "ECCENTRICITY": 0.00014036, "INCLINATION": 43.0015, "RA_OF_ASC_NODE": 143.7745, "ARG_OF_PERICENTER": 266.2961, "MEAN_ANOMALY": 15.7303, "EPHEMERIS_TYPE": 0, "CLASSIFICATION_TYPE": "U", "NORAD_CAT_ID": 66976, "ELEMENT_SET_NO": 999, "REV_AT_EPOCH": 245, "BSTAR": -0.0099939677, "MEAN_MOTION_DOT": -0.02260314, "MEAN_MOTION_DDOT": 0}, "tle": {"line1": "1 66976U 25288T   25350.58336806 -.02260314  00000+0 -99940-2 0  9995", "line2": "2 66976  43.0015 143.7745 0001403 266.2961  15.7303 15.86872966  2458"}}, "geometry": {"type": "Point", "coordinates": [22.635443196857523, -40.61573712206821]}}, {"type": "Feature", "properties": {"norad_id": 66977, "name": "STARLINK-35770", "group": "last-30-days", "lat": -33.708903738346976, "lon": 89.8164098459576, "alt_km": 308.1157675131535, "timestamp": "2025-12-17T21:39:44.493586+00:00", "meta": {"OBJECT_NAME": "STARLINK-35770", "OBJECT_ID": "2025-288U", "EPOCH": "2025-12-16T14:00:03.000384", "MEAN_MOTION": 15.92020579, "ECCENTRICITY": 0.00016213, "INCLINATION": 43.0015, "RA_OF_ASC_NODE": 143.719, "ARG_OF_PERICENTER": 268.791, "MEAN_ANOMALY": 35.3505, "EPHEMERIS_TYPE": 0, "CLASSIFICATION_TYPE": "U", "NORAD_CAT_ID": 66977, "ELEMENT_SET_NO": 999, "REV_AT_EPOCH": 245, "BSTAR": -0.0043514458, "MEAN_MOTION_DOT": -0.01493733, "MEAN_MOTION_DDOT": 0.00062982603}, "tle": {"line1": "1 66977U 25288U   25350.58336806 -.01493733  62983-3 -43514-2 0  9996", "line2": "2 66977  43.0015 143.7190 0001621 268.7910  35.3505 15.92020579  2450"}}, "geometry": {"type": "Point", "coordinates": [89.8164098459576, -33.708903738346976]}}, {"type": "Feature", "properties": {"norad_id": 66978, "name": "STARLINK-35787", "group": "last-30-days", "lat": -30.572948800300047, "lon": 96.1769675092496, "alt_km": 307.63862399140544, "timestamp": "2025-12-17T21:39:44.493595+00:00", "meta": {"OBJECT_NAME": "STARLINK-35787", "OBJECT_ID": "2025-288V", "EPOCH": "2025-12-16T14:00:03.000384", "MEAN_MOTION": 15.92184934, "ECCENTRICITY": 0.00017103, "INCLINATION": 43.0017, "RA_OF_ASC_NODE": 143.7048, "ARG_OF_PERICENTER": 269.1544, "MEAN_ANOMALY": 40.5806, "EPHEMERIS_TYPE": 0, "CLASSIFICATION_TYPE": "U", "NORAD_CAT_ID": 66978, "ELEMENT_SET_NO": 999, "REV_AT_EPOCH": 245, "BSTAR": -0.0043821791, "MEAN_MOTION_DOT": -0.01516958, "MEAN_MOTION_DDOT": 0.00064895433}, "tle": {"line1": "1 66978U 25288V   25350.58336806 -.01516958  64895-3 -43822-2 0  9998", "line2": "2 66978  43.0017 143.7048 0001710 269.1544  40.5806 15.92184934  2450"}}, "geometry": {"type": "Point", "coordinates": [96.1769675092496, -30.572948800300047]}}, {"type": "Feature", "properties": {"norad_id": 66979, "name": "STARLINK-36107", "group": "last-30-days", "lat": -19.22300404077852, "lon": 113.49359840472188, "alt_km": 289.056211490637, "timestamp": "2025-12-17T21:39:44.493605+00:00", "meta": {"OBJECT_NAME": "STARLINK-36107", "OBJECT_ID": "2025-288W", "EPOCH": "2025-12-16T17:12:42.185952", "MEAN_MOTION": 15.93430839, "ECCENTRICITY": 0.00160462, "INCLINATION": 42.9997, "RA_OF_ASC_NODE": 142.8664, "ARG_OF_PERICENTER": 244.4268, "MEAN_ANOMALY": 115.495, "EPHEMERIS_TYPE": 0, "CLASSIFICATION_TYPE": "U", "NORAD_CAT_ID": 66979, "ELEMENT_SET_NO": 999, "REV_AT_EPOCH": 247, "BSTAR": 0.0013009519, "MEAN_MOTION_DOT": 0.00486365, "MEAN_MOTION_DDOT": 0.00010087688}, "tle": {"line1": "1 66979U 25288W   25350.71715493  .00486365  10088-3  13010-2 0  9993", "line2": "2 66979  42.9997 142.8664 0016046 244.4268 115.4950 15.93430839  2470"}}, "geometry": {"type": "Point", "coordinates": [113.49359840472188, -19.22300404077852]}}, {"type": "Feature", "properties": {"norad_id": 66980, "name": "STARLINK-36086", "group": "last-30-days", "lat": -27.909659952877572, "lon": 100.86677924609442, "alt_km": 307.4056631614185, "timestamp": "2025-12-17T21:39:44.493614+00:00", "meta": {"OBJECT_NAME": "STARLINK-36086", "OBJECT_ID": "2025-288X", "EPOCH": "2025-12-16T14:00:03.000384", "MEAN_MOTION": 15.92297904, "ECCENTRICITY": 0.00016182, "INCLINATION": 43.0016, "RA_OF_ASC_NODE": 143.6934, "ARG_OF_PERICENTER": 268.1791, "MEAN_ANOMALY": 45.9943, "EPHEMERIS_TYPE": 0, "CLASSIFICATION_TYPE": "U", "NORAD_CAT_ID": 66980, "ELEMENT_SET_NO": 999, "REV_AT_EPOCH": 245, "BSTAR": -0.0043994033, "MEAN_MOTION_DOT": -0.01531722, "MEAN_MOTION_DDOT": 0.00066132736}, "tle": {"line1": "1 66980U 25288X   25350.58336806 -.01531722  66133-3 -43994-2 0  9994", "line2": "2 66980  43.0016 143.6934 0001618 268.1791  45.9943 15.92297904  2458"}}, "geometry": {"type": "Point", "coordinates": [100.86677924609442, -27.909659952877572]}}, {"type": "Feature", "properties": {"norad_id": 66981, "name": "STARLINK-36142", "group": "last-30-days", "lat": -26.730475602585667, "lon": 102.78809847124748, "alt_km": 307.143386140624, "timestamp": "2025-12-17T21:39:44.493623+00:00", "meta": {"OBJECT_NAME": "STARLINK-36142", "OBJECT_ID": "2025-288Y", "EPOCH": "2025-12-16T14:00:03.000384", "MEAN_MOTION": 15.92353214, "ECCENTRICITY": 0.00017323, "INCLINATION": 43.0017, "RA_OF_ASC_NODE": 143.6886, "ARG_OF_PERICENTER": 269.5465, "MEAN_ANOMALY": 46.4787, "EPHEMERIS_TYPE": 0, "CLASSIFICATION_TYPE": "U", "NORAD_CAT_ID": 66981, "ELEMENT_SET_NO": 999, "REV_AT_EPOCH": 245, "BSTAR": -0.0044051019, "MEAN_MOTION_DOT": -0.01538093, "MEAN_MOTION_DDOT": 0.00066674822}, "tle": {"line1": "1 66981U 25288Y   25350.58336806 -.01538093  66675-3 -44051-2 0  9999", "line2": "2 66981  43.0017 143.6886 0001732 269.5465  46.4787 15.92353214  2455"}}, "geometry": {"type": "Point", "coordinates": [102.78809847124748, -26.730475602585667]}}, {"type": "Feature", "properties": {"norad_id": 66982, "name": "STARLINK-36113", "group": "last-30-days", "lat": -25.501271912206796, "lon": 104.70676968639674, "alt_km": 307.1044899590397, "timestamp": "2025-12-17T21:39:44.493632+00:00", "meta": {"OBJECT_NAME": "STARLINK-36113", "OBJECT_ID": "2025-288Z", "EPOCH": "2025-12-16T14:00:03.000384", "MEAN_MOTION": 15.92425167, "ECCENTRICITY": 0.00016717, "INCLINATION": 43.0015, "RA_OF_ASC_NODE": 143.6838, "ARG_OF_PERICENTER": 268.4149, "MEAN_ANOMALY": 49.5209, "EPHEMERIS_TYPE": 0, "CLASSIFICATION_TYPE": "U", "NORAD_CAT_ID": 66982, "ELEMENT_SET_NO": 999, "REV_AT_EPOCH": 245, "BSTAR": -0.0044569293, "MEAN_MOTION_DOT": -0.01561743, "MEAN_MOTION_DDOT": 0.00068619318}, "tle": {"line1": "1 66982U 25288Z   25350.58336806 -.01561743  68619-3 -44569-2 0  9992", "line2": "2 66982  43.0015 143.6838 0001671 268.4149  49.5209 15.92425167  2450"}}, "geometry": {"type": "Point", "coordinates": [104.70676968639674, -25.501271912206796]}}, {"type": "Feature", "properties": {"norad_id": 66983, "name": "STARLINK-36145", "group": "last-30-days", "lat": -22.884348554440887, "lon": 108.55127066602518, "alt_km": 306.7432347321337, "timestamp": "2025-12-17T21:39:44.493641+00:00", "meta": {"OBJECT_NAME": "STARLINK-36145", "OBJECT_ID": "2025-288AA", "EPOCH": "2025-12-16T14:00:03.000384", "MEAN_MOTION": 15.92537439, "ECCENTRICITY": 0.00016987, "INCLINATION": 43.0015, "RA_OF_ASC_NODE": 143.6739, "ARG_OF_PERICENTER": 269.014, "MEAN_ANOMALY": 52.8562, "EPHEMERIS_TYPE": 0, "CLASSIFICATION_TYPE": "U", "NORAD_CAT_ID": 66983, "ELEMENT_SET_NO": 999, "REV_AT_EPOCH": 245, "BSTAR": -0.004474027, "MEAN_MOTION_DOT": -0.0157679, "MEAN_MOTION_DDOT": 0.00069916464}, "tle": {"line1": "1 66983U 25288AA  25350.58336806 -.01576790  69916-3 -44740-2 0  9993", "line2": "2 66983  43.0015 143.6739 0001698 269.0140  52.8562 15.92537439  2453"}}, "geometry": {"type": "Point", "coordinates": [108.55127066602518, -22.884348554440887]}}, {"type": "Feature", "properties": {"norad_id": 66984, "name": "STARLINK-35591", "group": "last-30-days", "lat": -24.177273251983106, "lon": 106.68891357823395, "alt_km": 306.94180128125845, "timestamp": "2025-12-17T21:39:44.493652+00:00", "meta": {"OBJECT_NAME": "STARLINK-35591", "OBJECT_ID": "2025-288AB", "EPOCH": "2025-12-16T14:00:03.000384", "MEAN_MOTION": 15.92465304, "ECCENTRICITY": 0.00017325, "INCLINATION": 43.0015, "RA_OF_ASC_NODE": 143.6783, "ARG_OF_PERICENTER": 266.0407, "MEAN_ANOMALY": 53.8937, "EPHEMERIS_TYPE": 0, "CLASSIFICATION_TYPE": "U", "NORAD_CAT_ID": 66984, "ELEMENT_SET_NO": 999, "REV_AT_EPOCH": 245, "BSTAR": -0.0044232003, "MEAN_MOTION_DOT": -0.01553302, "MEAN_MOTION_DDOT": 0.00067965655}, "tle": {"line1": "1 66984U 25288AB  25350.58336806 -.01553302  67966-3 -44232-2 0  9997", "line2": "2 66984  43.0015 143.6783 0001732 266.0407  53.8937 15.92465304  2453"}}, "geometry": {"type": "Point", "coordinates": [106.68891357823395, -24.177273251983106]}}, {"type": "Feature", "properties": {"norad_id": 66985, "name": "STARLINK-36103", "group": "last-30-days", "lat": -21.436129004111315, "lon": 110.56012363338223, "alt_km": 306.4433548357847, "timestamp": "2025-12-17T21:39:44.493661+00:00", "meta": {"OBJECT_NAME": "STARLINK-36103", "OBJECT_ID": "2025-288AC", "EPOCH": "2025-12-16T14:00:03.000384", "MEAN_MOTION": 15.92580006, "ECCENTRICITY": 0.00016733, "INCLINATION": 43.0015, "RA_OF_ASC_NODE": 143.6685, "ARG_OF_PERICENTER": 271.4634, "MEAN_ANOMALY": 52.5224, "EPHEMERIS_TYPE": 0, "CLASSIFICATION_TYPE": "U", "NORAD_CAT_ID": 66985, "ELEMENT_SET_NO": 999, "REV_AT_EPOCH": 245, "BSTAR": -0.0044405441, "MEAN_MOTION_DOT": -0.01568579, "MEAN_MOTION_DDOT": 0.00069277013}, "tle": {"line1": "1 66985U 25288AC  25350.58336806 -.01568579  69277-3 -44405-2 0  9999", "line2": "2 66985  43.0015 143.6685 0001673 271.4634  52.5224 15.92580006  2453"}}, "geometry": {"type": "Point", "coordinates": [110.56012363338223, -21.436129004111315]}}]}